{
    "links": {
        "self": "http://www.neowsapp.com/rest/v1/neo/3786448?api_key=iIulBulltgU6a56xZRHN4H3l9WmuAYTsLGpBGhQ2"
    },
    "id": "3786448",
    "neo_reference_id": "3786448",
    "name": "(2017 TE6)",
    "designation": "2017 TE6",
    "nasa_jpl_url": "http://ssd.jpl.nasa.gov/sbdb.cgi?sstr=3786448",
    "absolute_magnitude_h": 23.5,
    "estimated_diameter": {
        "kilometers": {
            "estimated_diameter_min": 0.0530340723,
            "estimated_diameter_max": 0.1185877909
        },
        "meters": {
            "estimated_diameter_min": 53.0340723319,
            "estimated_diameter_max": 118.5877908577
        },
        "miles": {
            "estimated_diameter_min": 0.0329538346,
            "estimated_diameter_max": 0.0736870142
        },
        "feet": {
            "estimated_diameter_min": 173.9963058693,
            "estimated_diameter_max": 389.0675677576
        }
    },
    "is_potentially_hazardous_asteroid": false,
    "close_approach_data": [
        {
            "close_approach_date": "2017-10-21",
            "close_approach_date_full": "2017-Oct-21 09:59",
            "epoch_date_close_approach": 1508579940000,
            "relative_velocity": {
                "kilometers_per_second": "12.9911010749",
                "kilometers_per_hour": "46767.9638696692",
                "miles_per_hour": "29059.7939944619"
            },
            "miss_distance": {
                "astronomical": "0.2574085233",
                "lunar": "100.1319155637",
                "kilometers": "38507766.805525371",
                "miles": "23927616.7546212798"
            },
            "orbiting_body": "Earth"
        }
    ],
    "orbital_data": {
        "orbit_id": "1",
        "orbit_determination_date": "2017-10-17 14:42:07",
        "first_observation_date": "2017-10-13",
        "last_observation_date": "2017-10-17",
        "data_arc_in_days": 4,
        "observations_used": 18,
        "orbit_uncertainty": "9",
        "minimum_orbit_intersection": ".250822",
        "jupiter_tisserand_invariant": "4.911",
        "epoch_osculation": "2458040.5",
        "eccentricity": ".04026657673983079",
        "semi_major_axis": "1.297308312542328",
        "inclination": "25.57203392685309",
        "ascending_node_longitude": "211.6602274673893",
        "orbital_period": "539.713433912495",
        "perihelion_distance": "1.245070147820122",
        "perihelion_argument": "172.1089058851358",
        "aphelion_distance": "1.349546477264534",
        "perihelion_time": "2458045.500924908188",
        "mean_anomaly": "356.6642798681206",
        "mean_motion": ".6670206398056188",
        "equinox": "J2000",
        "orbit_class": {
            "orbit_class_type": "AMO",
            "orbit_class_description": "Near-Earth asteroid orbits similar to that of 1221 Amor",
            "orbit_class_range": "1.017 AU < q (perihelion) < 1.3 AU"
        }
    },
    "is_sentry_object": false
}